STARLINK-1559           
1 46077U 20055BC  26068.23360559  .00042685  00000+0  14779-2 0  9995
2 46077  53.0254  76.0659 0004229  33.9710 326.1559 15.29461733309518
STARLINK-36525          
1 67450U 26008F   26068.37888174  .00042269  00000+0  15361-2 0  9996
2 67450  42.9969 207.0748 0000398 244.5603 115.5208 15.27594618  9521
