[{"OBJECT_NAME":"STARLINK-1559","OBJECT_ID":"2020-055BC","EPOCH":"2026-03-09T05:36:23.522976","MEAN_MOTION":15.29461733,"ECCENTRICITY":0.0004229,"INCLINATION":53.0254,"RA_OF_ASC_NODE":76.0659,"ARG_OF_PERICENTER":33.971,"MEAN_ANOMALY":326.1559,"EPHEMERIS_TYPE":0,"CLASSIFICATION_TYPE":"U","NORAD_CAT_ID":46077,"ELEMENT_SET_NO":999,"REV_AT_EPOCH":30951,"BSTAR":0.0014778793,"MEAN_MOTION_DOT":0.00042685,"MEAN_MOTION_DDOT":0},{"OBJECT_NAME":"STARLINK-36525","OBJECT_ID":"2026-008F","EPOCH":"2026-03-09T09:05:35.382336","MEAN_MOTION":15.27594618,"ECCENTRICITY":3.984e-5,"INCLINATION":42.9969,"RA_OF_ASC_NODE":207.0748,"ARG_OF_PERICENTER":244.5603,"MEAN_ANOMALY":115.5208,"EPHEMERIS_TYPE":0,"CLASSIFICATION_TYPE":"U","NORAD_CAT_ID":67450,"ELEMENT_SET_NO":999,"REV_AT_EPOCH":952,"BSTAR":0.0015360749,"MEAN_MOTION_DOT":0.00042269,"MEAN_MOTION_DDOT":0}]
